{
  "type": "FeatureCollection",
  "features": [
    {
      "type": "Feature",
      "properties": {
        "norad_id": 44333,
        "name": "AT&T T-16",
        "group": "intelsat",
        "lat": 0.02503367670882533,
        "lon": 155.184157488146,
        "alt_km": 35782.94273877096,
        "timestamp": "2025-12-12T11:38:31.084198+00:00",
        "meta_object_name": "AT&T T-16",
        "meta_object_id": "2019-034A",
        "meta_epoch": "2025-12-11T21:35:28.635072",
        "meta_mean_motion": 1.0027134,
        "meta_eccentricity": 7.8e-05,
        "meta_inclination": 0.0303,
        "meta_ra_of_asc_node": 77.076,
        "meta_arg_of_pericenter": 80.9177,
        "meta_mean_anomaly": 145.8602,
        "meta_ephemeris_type": 0,
        "meta_classification_type": "U",
        "meta_norad_cat_id": 44333,
        "meta_element_set_no": 999,
        "meta_rev_at_epoch": 2375,
        "meta_bstar": 0,
        "meta_mean_motion_dot": -1.07e-06,
        "meta_mean_motion_ddot": 0,
        "tle_line1": "1 44333U 19034A   25345.89963698 -.00000107  00000+0  00000+0 0  9998",
        "tle_line2": "2 44333   0.0303  77.0760 0000780  80.9177 145.8602  1.00271340 23750"
      },
      "geometry": {
        "type": "Point",
        "coordinates": [
          155.184157488146,
          0.02503367670882533
        ]
      }
    },
    {
      "type": "Feature",
      "properties": {
        "norad_id": 44476,
        "name": "INTELSAT 39 (IS-39)",
        "group": "intelsat",
        "lat": -0.004521216765850308,
        "lon": -42.007570318181216,
        "alt_km": 35792.12622750462,
        "timestamp": "2025-12-12T11:38:31.084225+00:00",
        "meta_object_name": "INTELSAT 39 (IS-39)",
        "meta_object_id": "2019-049B",
        "meta_epoch": "2025-12-11T23:25:15.903264",
        "meta_mean_motion": 1.00267474,
        "meta_eccentricity": 0.0001157,
        "meta_inclination": 0.0183,
        "meta_ra_of_asc_node": 320.2601,
        "meta_arg_of_pericenter": 176.2508,
        "meta_mean_anomaly": 357.6803,
        "meta_ephemeris_type": 0,
        "meta_classification_type": "U",
        "meta_norad_cat_id": 44476,
        "meta_element_set_no": 999,
        "meta_rev_at_epoch": 2325,
        "meta_bstar": 0,
        "meta_mean_motion_dot": 4.3e-07,
        "meta_mean_motion_ddot": 0,
        "tle_line1": "1 44476U 19049B   25345.97587851  .00000043  00000+0  00000+0 0  9992",
        "tle_line2": "2 44476   0.0183 320.2601 0001157 176.2508 357.6803  1.00267474 23251"
      },
      "geometry": {
        "type": "Point",
        "coordinates": [
          -42.007570318181216,
          -0.004521216765850308
        ]
      }
    },
    {
      "type": "Feature",
      "properties": {
        "norad_id": 46114,
        "name": "GALAXY 30 (G-30)",
        "group": "intelsat",
        "lat": 0.014647657020327018,
        "lon": 131.03764783195658,
        "alt_km": 35791.978860660485,
        "timestamp": "2025-12-12T11:38:31.084238+00:00",
        "meta_object_name": "GALAXY 30 (G-30)",
        "meta_object_id": "2020-056C",
        "meta_epoch": "2025-12-12T04:02:38.642784",
        "meta_mean_motion": 1.00272734,
        "meta_eccentricity": 0.0002253,
        "meta_inclination": 0.0165,
        "meta_ra_of_asc_node": 336.288,
        "meta_arg_of_pericenter": 285.2065,
        "meta_mean_anomaly": 115.287,
        "meta_ephemeris_type": 0,
        "meta_classification_type": "U",
        "meta_norad_cat_id": 46114,
        "meta_element_set_no": 999,
        "meta_rev_at_epoch": 1941,
        "meta_bstar": 0,
        "meta_mean_motion_dot": 4.6e-07,
        "meta_mean_motion_ddot": 0,
        "tle_line1": "1 46114U 20056C   25346.16850281  .00000046  00000+0  00000+0 0  9998",
        "tle_line2": "2 46114   0.0165 336.2880 0002253 285.2065 115.2870  1.00272734 19415"
      },
      "geometry": {
        "type": "Point",
        "coordinates": [
          131.03764783195658,
          0.014647657020327018
        ]
      }
    },
    {
      "type": "Feature",
      "properties": {
        "norad_id": 54026,
        "name": "GALAXY 33 (G-33)",
        "group": "intelsat",
        "lat": 0.014394596950676502,
        "lon": 123.03758518775946,
        "alt_km": 35791.92711285062,
        "timestamp": "2025-12-12T11:38:31.084250+00:00",
        "meta_object_name": "GALAXY 33 (G-33)",
        "meta_object_id": "2022-128A",
        "meta_epoch": "2025-12-11T16:18:14.016960",
        "meta_mean_motion": 1.00271184,
        "meta_eccentricity": 0.0002031,
        "meta_inclination": 0.0122,
        "meta_ra_of_asc_node": 329.7994,
        "meta_arg_of_pericenter": 285.1983,
        "meta_mean_anomaly": 297.1989,
        "meta_ephemeris_type": 0,
        "meta_classification_type": "U",
        "meta_norad_cat_id": 54026,
        "meta_element_set_no": 999,
        "meta_rev_at_epoch": 1186,
        "meta_bstar": 0,
        "meta_mean_motion_dot": 8.7e-07,
        "meta_mean_motion_ddot": 0,
        "tle_line1": "1 54026U 22128A   25345.67932890  .00000087  00000+0  00000+0 0  9998",
        "tle_line2": "2 54026   0.0122 329.7994 0002031 285.1983 297.1989  1.00271184 11864"
      },
      "geometry": {
        "type": "Point",
        "coordinates": [
          123.03758518775946,
          0.014394596950676502
        ]
      }
    },
    {
      "type": "Feature",
      "properties": {
        "norad_id": 54027,
        "name": "GALAXY 34 (G-34)",
        "group": "intelsat",
        "lat": 0.021142849864275594,
        "lon": 127.10462365812508,
        "alt_km": 35789.98368883839,
        "timestamp": "2025-12-12T11:38:31.084262+00:00",
        "meta_object_name": "GALAXY 34 (G-34)",
        "meta_object_id": "2022-128B",
        "meta_epoch": "2025-12-11T16:19:21.409824",
        "meta_mean_motion": 1.00269841,
        "meta_eccentricity": 0.0001404,
        "meta_inclination": 0.0224,
        "meta_ra_of_asc_node": 340.3184,
        "meta_arg_of_pericenter": 271.9035,
        "meta_mean_anomaly": 304.3231,
        "meta_ephemeris_type": 0,
        "meta_classification_type": "U",
        "meta_norad_cat_id": 54027,
        "meta_element_set_no": 999,
        "meta_rev_at_epoch": 1203,
        "meta_bstar": 0,
        "meta_mean_motion_dot": 0,
        "meta_mean_motion_ddot": 0,
        "tle_line1": "1 54027U 22128B   25345.68010891  .00000000  00000+0  00000+0 0  9993",
        "tle_line2": "2 54027   0.0224 340.3184 0001404 271.9035 304.3231  1.00269841 12030"
      },
      "geometry": {
        "type": "Point",
        "coordinates": [
          127.10462365812508,
          0.021142849864275594
        ]
      }
    },
    {
      "type": "Feature",
      "properties": {
        "norad_id": 54243,
        "name": "GALAXY 31 (G-31)",
        "group": "intelsat",
        "lat": -0.0052343493494150664,
        "lon": 135.04427271041808,
        "alt_km": 35791.39986483658,
        "timestamp": "2025-12-12T11:38:31.084274+00:00",
        "meta_object_name": "GALAXY 31 (G-31)",
        "meta_object_id": "2022-153A",
        "meta_epoch": "2025-12-12T02:56:38.651712",
        "meta_mean_motion": 1.0027141,
        "meta_eccentricity": 0.00017,
        "meta_inclination": 0.0143,
        "meta_ra_of_asc_node": 275.4545,
        "meta_arg_of_pericenter": 356.3387,
        "meta_mean_anomaly": 92.445,
        "meta_ephemeris_type": 0,
        "meta_classification_type": "U",
        "meta_norad_cat_id": 54243,
        "meta_element_set_no": 999,
        "meta_rev_at_epoch": 525,
        "meta_bstar": 0,
        "meta_mean_motion_dot": 2.3e-07,
        "meta_mean_motion_ddot": 0,
        "tle_line1": "1 54243U 22153A   25346.12266958  .00000023  00000+0  00000+0 0  9993",
        "tle_line2": "2 54243   0.0143 275.4545 0001700 356.3387  92.4450  1.00271410  5255"
      },
      "geometry": {
        "type": "Point",
        "coordinates": [
          135.04427271041808,
          -0.0052343493494150664
        ]
      }
    },
    {
      "type": "Feature",
      "properties": {
        "norad_id": 54244,
        "name": "GALAXY 32 (G-32)",
        "group": "intelsat",
        "lat": 0.0030777610752764644,
        "lon": 165.0226856232441,
        "alt_km": 35796.06410285103,
        "timestamp": "2025-12-12T11:38:31.084285+00:00",
        "meta_object_name": "GALAXY 32 (G-32)",
        "meta_object_id": "2022-153B",
        "meta_epoch": "2025-12-11T19:55:38.198208",
        "meta_mean_motion": 1.00270455,
        "meta_eccentricity": 0.0002716,
        "meta_inclination": 0.0095,
        "meta_ra_of_asc_node": 3.9095,
        "meta_arg_of_pericenter": 308.1779,
        "meta_mean_anomaly": 336.5954,
        "meta_ephemeris_type": 0,
        "meta_classification_type": "U",
        "meta_norad_cat_id": 54244,
        "meta_element_set_no": 999,
        "meta_rev_at_epoch": 1126,
        "meta_bstar": 0,
        "meta_mean_motion_dot": -1.66e-06,
        "meta_mean_motion_ddot": 0,
        "tle_line1": "1 54244U 22153B   25345.83030322 -.00000166  00000+0  00000+0 0  9994",
        "tle_line2": "2 54244   0.0095   3.9095 0002716 308.1779 336.5954  1.00270455 11261"
      },
      "geometry": {
        "type": "Point",
        "coordinates": [
          165.0226856232441,
          0.0030777610752764644
        ]
      }
    }
  ]
}